CAS-2T & KS-1Q          
1 41847U 16066G   20148.26341503  .00000031  00000-0  15994-4 0  9998
2 41847  98.6555 198.5606 0364570 292.1580  64.1296 14.38065200186373
NAYIF-1 (EO-88)         
1 42017U 17008BX  20147.85124227  .00001236  00000-0  50174-4 0  9998
2 42017  97.3606 215.7277 0007442  50.1508 310.0384 15.26444150182253
MAX VALIER SAT          
1 42778U 17036P   20148.31223182  .00000787  00000-0  36765-4 0  9995
2 42778  97.3064 202.5311 0014072  96.5190 263.7649 15.22585322162514
RADFXSAT (FOX-1B)       
1 43017U 17073E   20148.28053412  .00000356  00000-0  32626-4 0  9990
2 43017  97.7239  61.3343 0258305 119.1819 243.5502 14.78912594136031
FOX-1D (AO-92)          
1 43137U 18004AC  20148.47479465  .00000837  00000-0  37390-4 0  9996
2 43137  97.4464 219.7768 0010609 124.1240 236.1005 15.24086659131855
DIWATA-2B               
1 43678U 18084H   20148.47757942 -.00000235  00000-0 -17659-4 0  9993
2 43678  97.8812 266.8853 0008713 244.3744 115.6591 14.91626050 85892
ES'HAIL 2               
1 43700U 18090A   20148.09355036  .00000149  00000-0  00000+0 0  9991
2 43700   0.0130 329.9216 0001051 101.3810 233.2843  1.00270261  5732
FOX-1CLIFF (AO-95)      
1 43770U 18099N   20147.88955709  .00000509  00000-0  51759-4 0  9998
2 43770  97.7065 219.6445 0012937 268.8193  91.1546 14.94978608 80692
ITASAT 1                
1 43786U 18099AE  20148.42671218  .00000387  00000-0  40330-4 0  9993
2 43786  97.7081 220.5770 0013577 259.8658 100.1031 14.95320412 80792
JY1SAT (JO-97)          
1 43803U 18099AX  20147.77461158 -.00000150  00000-0 -82958-5 0  9993
2 43803  97.7040 219.7598 0013622 262.9305  97.0366 14.95493244 80698
PSAT2 (NO-104)          
1 44354U 19036R   20147.15122506  .00007115  00000-0  10162-3 0  9992
2 44354  28.5272 167.0375 0365749  72.9108 291.1204 15.03231255 50458
BRICSAT2 (NO-103)       
1 44355U 19036S   20148.36152817  .00011900  00000-0  16472-3 0  9992
2 44355  28.5276 151.5076 0345392  98.1589 265.8322 15.08373923 50716
JAISAT-1                
1 44419U 19038F   20148.38858691  .00000602  00000-0  37956-4 0  9998
2 44419  97.5372 110.2339 0020892 199.1497 160.8951 15.12752233 49416
DUCHIFAT-3              
1 44854U 19089C   20148.51282348  .00000234  00000-0  25346-4 0  9993
2 44854  36.9675 222.1046 0008912 260.5653  99.4072 14.99055976 25156
RS-44 & BREEZE-KM R/B   
1 44909U 19096E   20148.63973613  .00000009  00000-0  00000-0 0  9993
2 44909  82.5223   9.1465 0216235 275.3133  82.3336 12.79707274 19526
ORBITAL FACTORY 2 (OF-2)
1 45113U 19071C   20148.04132299  .00001404  00000-0  54527-4 0  9993
2 45113  51.6441 106.9777 0013021 343.1673  16.8875 15.33274814 17841
HUSKYSAT-1              
1 45119U 19071J   20147.89246697  .00001457  00000-0  55788-4 0  9997
2 45119  51.6435 107.4846 0012261 339.1109  20.9371 15.33499389 17817
